ONEWEB-0320             
1 49190U 21083E   24171.57025350  .00000039  00000+0  67208-4 0  9997
2 49190  87.9150 120.3148 0002087  81.2019 278.9349 13.18684795134082
ONEWEB-0321             
1 49191U 21083F   24171.70847686 -.00000032  00000+0 -11045-3 0  9999
2 49191  87.9221  59.1805 0002049  76.3045 283.8316 13.20772218142082
ONEWEB-0322             
1 49192U 21083G   24171.58257322  .00000247  00000+0  64185-3 0  9997
2 49192  87.8937 105.0732 0002383  70.3775 289.7611 13.13468548135402
ONEWEB-0324             
1 49193U 21083H   24171.55604071  .00000008  00000+0 -11900-4 0  9996
2 49193  87.9147 120.2995 0001838  78.2700 281.8638 13.18686372134106
ONEWEB-0325             
1 49194U 21083J   24171.56076064  .00000031  00000+0  44956-4 0  9995
2 49194  87.9149 120.3124 0002147  81.4014 278.7361 13.18684120134110
ONEWEB-0326             
1 49195U 21083K   24171.87851597  .00000056  00000+0  11036-3 0  9991
2 49195  87.9147 120.2480 0001681  93.8961 266.2364 13.18685812135422
ONEWEB-0327             
1 49196U 21083L   24171.85240285  .00000008  00000+0 -11888-4 0  9990
2 49196  87.9146 120.2655 0001864  91.9352 268.1994 13.18688674135443
ONEWEB-0328             
1 49197U 21083M   24171.87775781  .00000235  00000+0  60890-3 0  9994
2 49197  87.8926 104.9986 0001904  78.4139 281.7204 13.13471139136710
